ONEWEB-0371             
1 49297U 21090U   24232.30536257  .00000010  00000+0 -83751-5 0  9997
2 49297  87.9099  77.6344 0001647  88.6255 271.5066 13.19727325138490
ONEWEB-0372             
1 49298U 21090V   24232.42581506  .00000085  00000+0  17671-3 0  9995
2 49298  87.9189  47.0786 0001618  90.4239 269.7080 13.20773213141828
ONEWEB-0373             
1 49299U 21090W   24232.45279829  .00000070  00000+0  14100-3 0  9999
2 49299  87.9190  47.0882 0001754  79.7208 280.4123 13.20772459143017
ONEWEB-0374             
1 49300U 21090X   24232.47916897 -.00000136  00000+0 -40004-3 0  9994
2 49300  87.8920  62.3088 0001699  83.6575 276.4749 13.14503440139971
ONEWEB-0375             
1 49301U 21090Y   24232.44017178  .00000105  00000+0  22615-3 0  9998
2 49301  87.9192  47.0676 0002378  79.6700 280.4701 13.20771389142510
ONEWEB-0376             
1 49302U 21090Z   24232.53122740  .00000066  00000+0  13343-3 0  9995
2 49302  87.9094  77.5936 0001442  86.3619 273.7679 13.19725133139805
ONEWEB-0377             
1 49303U 21090AA  24232.42610256  .00000144  00000+0  32238-3 0  9999
2 49303  87.9191  47.0620 0001919  93.4802 266.6550 13.20772608142509
ONEWEB-0378             
1 49304U 21090AB  24232.44819250  .00000022  00000+0  22646-4 0  9995
2 49304  87.9193  47.0610 0001820  86.8252 273.3090 13.20773596141776
